NORAD_CAT_ID,OBJECT_NAME,OBJECT_TYPE,EPOCH,MEAN_MOTION,ECCENTRICITY,INCLINATION,RA_OF_ASC_NODE,ARG_OF_PERICENTER,MEAN_ANOMALY,BSTAR,MEAN_MOTION_DOT,MEAN_MOTION_DDOT,TLE_LINE0,TLE_LINE1,TLE_LINE2,SEMIMAJOR_AXIS,PERIOD,APOGEE,PERIGEE,DECAYED
52703.0,STARLINK-4020,PAYLOAD,2024-03-24 08:21:19,15.08843053,0.0001347,53.2161,105.4222,77.9944,282.1199,0.00010492,1.382e-05,0.0,0 STARLINK-4020,1 52703U 22053AZ  24084.34813863  .00001382  00000-0  10492-3 0  9996,2 52703  53.2161 105.4222 0001347  77.9944 282.1199 15.08843053102897,6917.871,95.437,540.668,538.804,0.0
52703.0,STARLINK-4020,PAYLOAD,2024-03-24 17:53:37,15.08854063,0.0001432,53.217,103.638,81.1783,278.9372,0.00018963,2.732e-05,0.0,0 STARLINK-4020,1 52703U 22053AZ  24084.74556990  .00002732  00000-0  18963-3 0  9996,2 52703  53.2170 103.6380 0001432  81.1783 278.9372 15.08854063102951,6917.837,95.437,540.693,538.712,0.0
52703.0,STARLINK-4020,PAYLOAD,2024-03-25 05:01:20,15.08832348,0.0001507,53.2171,101.5592,95.7837,264.3327,3.1693e-05,2.16e-06,0.0,0 STARLINK-4020,1 52703U 22053AZ  24085.20926560  .00000216  00000-0  31693-4 0  9993,2 52703  53.2171 101.5592 0001507  95.7837 264.3327 15.08832348103028,6917.904,95.438,540.811,538.726,0.0
52703.0,STARLINK-4020,PAYLOAD,2024-03-25 17:44:25,15.08846607,0.0001411,53.2169,99.1809,93.9077,266.2077,0.00020058,2.906e-05,0.0,0 STARLINK-4020,1 52703U 22053AZ  24085.73918097  .00002906  00000-0  20058-3 0  9997,2 52703  53.2169  99.1809 0001411  93.9077 266.2077 15.08846607103103,6917.86,95.437,540.701,538.749,0.0
52703.0,STARLINK-4020,PAYLOAD,2024-03-26 04:52:09,15.08798325,0.0001423,53.2175,97.0993,103.6527,256.4623,-0.00062114,-0.00010148,0.0,0 STARLINK-4020,1 52703U 22053AZ  24086.20288535 -.00010148  00000-0 -62114-3 0  9995,2 52703  53.2175  97.0993 0001423 103.6527 256.4623 15.08798325103171,6918.008,95.44,540.857,538.888,0.0
52703.0,STARLINK-4020,PAYLOAD,2024-03-26 09:38:17,15.08834292,0.000152,53.2161,96.205,111.3017,248.8138,0.00017215,2.452e-05,0.0,0 STARLINK-4020,1 52703U 22053AZ  24086.40159668  .00002452  00000-0  17215-3 0  9990,2 52703  53.2161  96.2050 0001520 111.3017 248.8138 15.08834292103203,6917.898,95.438,540.814,538.711,0.0
52703.0,STARLINK-4020,PAYLOAD,2024-03-26 17:35:13,15.08838826,0.0001303,53.2152,94.7176,98.768,261.346,0.0005149,7.916e-05,0.0,0 STARLINK-4020,1 52703U 22053AZ  24086.73279817  .00007916  00000-0  51490-3 0  9998,2 52703  53.2152  94.7176 0001303  98.7680 261.3460 15.08838826102404,6917.884,95.438,540.65,538.848,0.0
52703.0,STARLINK-4020,PAYLOAD,2024-03-27 09:29:04,15.08871787,0.0001234,53.2146,91.745,103.5156,256.5973,0.0010441,0.00016382,0.0,0 STARLINK-4020,1 52703U 22053AZ  24087.39519225  .00016382  00000-0  10441-2 0  9998,2 52703  53.2146  91.7450 0001234 103.5156 256.5973 15.08871787103358,6917.783,95.436,540.502,538.795,0.0
52703.0,STARLINK-4020,PAYLOAD,2024-03-27 17:25:59,15.08884427,0.0001345,53.215,90.2545,91.1455,268.9691,0.001017,0.00015954,0.0,0 STARLINK-4020,1 52703U 22053AZ  24087.72638319  .00015954  00000-0  10170-2 0  9994,2 52703  53.2150  90.2545 0001345  91.1455 268.9691 15.08884427102559,6917.745,95.435,540.54,538.679,0.0
52703.0,STARLINK-4020,PAYLOAD,2024-03-28 04:33:41,15.08852916,0.0002056,53.2148,88.1751,96.5816,263.541,0.00061372,9.496e-05,0.0,0 STARLINK-4020,1 52703U 22053AZ  24088.19006347  .00009496  00000-0  61372-3 0  9991,2 52703  53.2148  88.1751 0002056  96.5816 263.5410 15.08852916103471,6917.841,95.437,541.128,538.284,0.0
52703.0,STARLINK-4020,PAYLOAD,2024-03-28 09:19:50,15.08865201,0.0001382,53.215,87.2839,93.5491,266.5659,0.00045898,7.029e-05,0.0,0 STARLINK-4020,1 52703U 22053AZ  24088.38877884  .00007029  00000-0  45898-3 0  9999,2 52703  53.2150  87.2839 0001382  93.5491 266.5659 15.08865201102656,6917.803,95.436,540.624,538.712,0.0
52703.0,STARLINK-4020,PAYLOAD,2024-03-28 17:16:46,15.08859754,0.0001427,53.2151,85.797,91.7255,268.3901,0.00095681,0.00014981,0.0,0 STARLINK-4020,1 52703U 22053AZ  24088.71997785  .00014981  00000-0  95681-3 0  9999,2 52703  53.2151  85.7970 0001427  91.7255 268.3901 15.08859754102706,6917.82,95.436,540.672,538.698,0.0
52703.0,STARLINK-4020,PAYLOAD,2024-03-29 04:24:28,15.08848748,0.0001838,53.2177,83.7114,113.7751,246.3434,0.00045454,6.955e-05,0.0,0 STARLINK-4020,1 52703U 22053AZ  24089.18365862  .00006955  00000-0  45454-3 0  9991,2 52703  53.2177  83.7114 0001838 113.7751 246.3434 15.08848748103624,6917.854,95.437,540.99,538.447,0.0
52703.0,STARLINK-4020,PAYLOAD,2024-03-29 09:10:37,15.08844308,0.0001833,53.2183,82.8213,108.3899,251.7293,6.1412e-05,6.89e-06,0.0,0 STARLINK-4020,1 52703U 22053AZ  24089.38237972  .00000689  00000-0  61412-4 0  9994,2 52703  53.2183  82.8213 0001833 108.3899 251.7293 15.08844308102809,6917.867,95.437,541.0,538.464,0.0
52703.0,STARLINK-4020,PAYLOAD,2024-03-29 17:07:33,15.08846428,0.0001827,53.2182,81.3344,108.5394,251.5797,0.00010961,1.457e-05,0.0,0 STARLINK-4020,1 52703U 22053AZ  24089.71357954  .00001457  00000-0  10961-3 0  9990,2 52703  53.2182  81.3344 0001827 108.5394 251.5797 15.08846428103704,6917.861,95.437,540.99,538.462,0.0
52703.0,STARLINK-4020,PAYLOAD,2024-03-30 05:50:38,15.08840049,0.0001412,53.217,78.9595,96.4252,263.6901,8.1134e-05,1.004e-05,0.0,0 STARLINK-4020,1 52703U 22053AZ  24090.24350302  .00001004  00000-0  81134-4 0  9999,2 52703  53.2170  78.9595 0001412  96.4252 263.6901 15.08840049103781,6917.88,95.438,540.722,538.768,0.0
52703.0,STARLINK-4020,PAYLOAD,2024-03-30 23:19:53,15.08841753,0.0001499,53.2185,75.6878,100.9245,259.1916,0.00020462,2.97e-05,0.0,0 STARLINK-4020,1 52703U 22053AZ  24090.97214196  .00002970  00000-0  20462-3 0  9998,2 52703  53.2185  75.6878 0001499 100.9245 259.1916 15.08841753103041,6917.875,95.437,540.777,538.703,0.0
52703.0,STARLINK-4020,PAYLOAD,2024-03-31 08:52:12,15.08837798,0.0001452,53.2185,73.9022,102.2126,257.9028,2.9616e-05,1.83e-06,0.0,0 STARLINK-4020,1 52703U 22053AZ  24091.36958567  .00000183  00000-0  29616-4 0  9994,2 52703  53.2185  73.9022 0001452 102.2126 257.9028 15.08837798103959,6917.887,95.438,540.757,538.748,0.0
52703.0,STARLINK-4020,PAYLOAD,2024-03-31 15:13:44,15.08842225,0.0001301,53.2177,72.7137,97.4774,262.6366,5.8777e-05,6.48e-06,0.0,0 STARLINK-4020,1 52703U 22053AZ  24091.63454130  .00000648  00000-0  58777-4 0  9997,2 52703  53.2177  72.7137 0001301  97.4774 262.6366 15.08842225103141,6917.874,95.437,540.639,538.839,0.0
52703.0,STARLINK-4020,PAYLOAD,2024-04-01 05:32:13,15.08828064,0.0001337,53.2194,70.0402,93.5509,266.5636,4.8129e-05,4.78e-06,0.0,0 STARLINK-4020,1 52703U 22053AZ  24092.23071341  .00000478  00000-0  48129-4 0  9994,2 52703  53.2194  70.0402 0001337  93.5509 266.5636 15.08828064104080,6917.917,95.438,540.707,538.857,0.0
52703.0,STARLINK-4020,PAYLOAD,2024-04-01 08:42:59,15.08834029,0.0001269,53.2181,69.4428,89.6848,270.429,1.6996e-05,-1.7e-07,0.0,0 STARLINK-4020,1 52703U 22053AZ  24092.36319124 -.00000017  00000-0  16996-4 0  9999,2 52703  53.2181  69.4428 0001269  89.6848 270.4290 15.08834029103258,6917.899,95.438,540.642,538.886,0.0
52703.0,STARLINK-4020,PAYLOAD,2024-04-01 15:04:31,15.08838543,0.0001473,53.2194,68.2555,97.4636,262.6524,7.1648e-05,8.52e-06,0.0,0 STARLINK-4020,1 52703U 22053AZ  24092.62814778  .00000852  00000-0  71648-4 0  9994,2 52703  53.2194  68.2555 0001473  97.4636 262.6524 15.08838543104146,6917.885,95.438,540.769,538.731,0.0
52703.0,STARLINK-4020,PAYLOAD,2024-04-02 08:33:46,15.08839734,0.0001282,53.2194,64.984,93.8556,266.2583,0.00018179,2.606e-05,0.0,0 STARLINK-4020,1 52703U 22053AZ  24093.35678693  .00002606  00000-0  18179-3 0  9997,2 52703  53.2194  64.9840 0001282  93.8556 266.2583 15.08839734103401,6917.881,95.438,540.633,538.859,0.0
52703.0,STARLINK-4020,PAYLOAD,2024-04-02 14:55:18,15.08849357,0.00014,53.2196,63.7944,88.8768,271.2385,0.00016764,2.382e-05,0.0,0 STARLINK-4020,1 52703U 22053AZ  24093.62174040  .00002382  00000-0  16764-3 0  9993,2 52703  53.2196  63.7944 0001400  88.8768 271.2385 15.08849357104292,6917.852,95.437,540.685,538.748,0.0
52703.0,STARLINK-4020,PAYLOAD,2024-04-03 02:03:01,15.08829209,0.0001393,53.2196,61.7143,100.2888,259.8261,9.4118e-05,1.21e-05,0.0,0 STARLINK-4020,1 52703U 22053AZ  24094.08543766  .00001210  00000-0  94118-4 0  9998,2 52703  53.2196  61.7143 0001393 100.2888 259.8261 15.08829209104361,6917.913,95.438,540.742,538.815,0.0
52703.0,STARLINK-4020,PAYLOAD,2024-04-03 06:49:11,15.08832408,0.0001651,53.2202,60.8238,99.3194,260.7985,9.5035e-05,1.224e-05,0.0,0 STARLINK-4020,1 52703U 22053AZ  24094.28415735  .00001224  00000-0  95035-4 0  9998,2 52703  53.2202  60.8238 0001651  99.3194 260.7985 15.08832408103547,6917.904,95.438,540.911,538.626,0.0
52703.0,STARLINK-4020,PAYLOAD,2024-04-03 21:07:38,15.08841323,0.0001451,53.2194,58.145,93.9421,266.1737,8.5788e-05,1.078e-05,0.0,0 STARLINK-4020,1 52703U 22053AZ  24094.88031175  .00001078  00000-0  85788-4 0  9997,2 52703  53.2194  58.1450 0001451  93.9421 266.1737 15.08841323104489,6917.876,95.437,540.745,538.738,0.0
52703.0,STARLINK-4020,PAYLOAD,2024-04-04 14:36:52,15.08848267,0.0001343,53.2178,54.8724,87.718,272.3966,0.00012085,1.636e-05,0.0,0 STARLINK-4020,1 52703U 22053AZ  24095.60894529  .00001636  00000-0  12085-3 0  9997,2 52703  53.2178  54.8724 0001343  87.7180 272.3966 15.08848267103746,6917.855,95.437,540.649,538.791,0.0
52703.0,STARLINK-4020,PAYLOAD,2024-04-05 03:19:58,15.08837679,0.0001428,53.2187,52.4941,95.2157,264.8998,0.00031681,4.757e-05,0.0,0 STARLINK-4020,1 52703U 22053AZ  24096.13887230  .00004757  00000-0  31681-3 0  9997,2 52703  53.2187  52.4941 0001428  95.2157 264.8998 15.08837679104672,6917.887,95.438,540.74,538.765,0.0
52703.0,STARLINK-4020,PAYLOAD,2024-04-05 14:27:39,15.08849666,0.0001443,53.2182,50.4115,95.1311,264.9846,0.00020699,3.009e-05,0.0,0 STARLINK-4020,1 52703U 22053AZ  24096.60254356  .00003009  00000-0  20699-3 0  9992,2 52703  53.2182  50.4115 0001443  95.1311 264.9846 15.08849666103891,6917.851,95.437,540.714,538.718,0.0
